#dP2023  1 11  0  0  0.00000000      96 __u+U ITR14 FIT  IAC
## 2244 259200.00000000   900.00000000 59955 0.0000000000000
+  130   C01C02C03C04C05C06C07C08C09C10C11C12C13C14C16C19C20
+        C21C22C23C24C25C26C27C28C29C30C32C33C34C35C36C37C38
+        C39C40C41C42C43C44C45C46C59C60E01E02E03E04E05E07E08
+        E09E10E11E12E13E14E15E18E19E21E24E25E26E27E30E31E33
+        E34E36G01G02G03G04G05G06G07G08G09G10G11G12G13G14G15
+        G16G17G18G19G20G21G22G23G24G25G26G27G29G30G31G32J02
+        J03J04J07R01R02R03R04R05R06R07R08R09R10R11R12R13R14
+        R15R16R17R18R19R20R21R22R23R24R25  0  0  0  0  0  0
++        17 17 17 17 17  9  9  9  9  9  8  9  9  9  9  7  8
++         7  7  7  0  7  7  7  7  7  7  7  7  7  9  8  7  8
++         8  8  7  7  7  7  8  8 18 17  4  4  4  4  4  4  4
++         4  5  4  5  4  4  4  5  4  4  4  4  4  4  5  5  4
++         4  4  4  4  4  4  4  4  4  4  4  4  4  4  4  4  4
++         4  4  4  4  4  4  4  4  4  4  4  4  4  4  4  4  9
++        11  9 18  7  5  6  6  6 15  6  6  6 15  6  6  7  6
++         6  6  6  6  7  8  6  6 15  6  8  0  0  0  0  0  0
%c M  cc GPS ccc cccc cccc cccc cccc ccccc ccccc ccccc ccccc
%c cc cc ccc ccc cccc cccc cccc cccc ccccc ccccc ccccc ccccc
%f  0.0000000  0.000000000  0.00000000000  0.000000000000000
%f  0.0000000  0.000000000  0.00000000000  0.000000000000000
%i    0    0    0    0      0      0      0      0         0
%i    0    0    0    0      0      0      0      0         0
/* INFORMATION & ANALYSIS CENTER (IAC)            RAPID DATA
/* S/V CLOCKS ARE ALIGNED TO GNSS TIME                      
/* G:C1WC2W R:C1PC2P E:C1XC5X C:C2IC6I J:C1CC2S             
/* PCV:IGS20_2239 OL/AL:FES2004  NONE     YN ORB:CoN CLK:CoN
*  2023 01 11 20 15  0.00000000
PC01 -34330.194871  24425.662888    891.610894    920.475737
PC02   4396.231850  41950.655573    899.438570   -110.490800
PC03 -14785.199232  39470.348735   1366.324417     61.237356
PC04 -39603.564192  14403.762457    203.506635   -246.948019
PC05  21787.980968  36090.397730   1021.653383    254.727756
PC06 -15627.571484  38579.862711  -7532.513840   -184.321965
PC07  -1287.628162  33481.794594 -25440.376448     29.851160
PC08 -11343.043650  20338.254925  35137.243337    527.422585
PC09 -11198.667952  37951.299309 -14914.954275    222.082423
PC10   4230.033727  35345.420558 -21915.193412     34.139784
PC11 -17136.837187   4796.230208 -21416.662378   -183.495372
PC12  -9685.607595 -14621.557812 -21662.835412    392.514651
PC13  -5169.153107  22296.255434  35542.562433    180.937286
PC14 -20433.863641  -4599.304528  18482.752387    358.264316
PC16 -17283.743450  38277.975314  -5052.415922     83.933261
PC19  15759.043119  -5041.211128 -22445.614296   -897.552238
PC20  21594.641999  11990.522851 -12952.977640    771.108512
PC21 -14803.204068 -23108.891917  -5093.162669   -917.631830
PC22    563.313634 -20018.764861 -19443.285247   -690.915651
PC23 -11828.869025  16224.433087 -19380.173022   -871.319556
PC24 -24553.899155  -4785.403376  12323.681612 999999.999999
PC25 -25493.604911   9530.960015  -6118.598166     53.951560
PC26 -10520.157401 -13884.269323  21775.850719    -62.936954
PC27   4322.193530  21748.390362  16936.325689     80.099765
PC28  -8558.060580  26486.868009   1998.867445     57.786423
PC29  16788.876963 -15930.637512  15586.021101     66.118537
PC30  15172.625311   4918.106321  22895.134933      1.272071
PC32  14893.151268  23016.229711   5216.279173   -653.256875
PC33 -15837.853062   5045.700327  22420.902726   -881.963658
PC34 -15662.887379  -3529.534106 -22833.080010     81.498030
PC35   8494.845725 -26551.166608   -646.157168    278.313627
PC36  26002.897168  -8541.715411   5495.101220   -701.665548
PC37   8745.293227  14611.653067 -22107.249807   -850.791544
PC38 -19646.270207  21371.751405  30554.838607     51.281800
PC39 -18794.056026  37847.429717   1380.272417     -1.386225
PC40  -4892.488074  29553.758154 -29574.040809    -12.304898
PC41  -1108.404292  19704.968307  19780.767095   -482.790700
PC42 -21659.857292 -12974.805778  11946.448055   -901.787763
PC43 -17065.273300  15145.113893 -16089.360371      1.573167
PC44  -5109.690345 -21706.388201 -16764.156719    174.183756
PC45  11479.394413 -16174.863082  19633.693396    -46.314233
PC46  25486.645573   3510.700741 -10874.942282    -25.774858
PC59 -32262.297390  27124.046820    591.713326      0.371777
PC60   7272.969444  41520.089356   1109.643975     -0.575974
PE01  -3519.182461 -18279.579443  23007.552855   -593.464999
PE02   3960.186081  18363.682051 -22887.251122     14.115956
PE03   2490.351773  29338.621515   2998.196834   -638.955487
PE04 -13806.731585 -21739.256927  14591.792755    -34.057481
PE05 -10568.586747  19849.626780  19248.323692   -106.136674
PE07  17267.887058   1155.996011 -24012.261240    -14.407949
PE08  13732.567914  21795.180201 -14578.052695    -17.851081
PE09 -17150.689781  -1388.143711  24084.463056   -796.598192
PE10 -19774.296056  -2063.677300 -21927.415030   -504.380301
PE11 -24462.197756   7367.212906 -14964.309956    416.977289
PE12 -12563.502219 -10418.493005 -24689.660209   -380.602071
PE13  24180.971329  -6655.572682  15726.691441    429.983124
PE14 -16818.999551  12049.708769 -20590.949110    110.662447
PE15  12231.491222  10621.557413  24785.777193    694.812127
PE18   7305.271116 -26065.675299   9182.302619   -520.727816
PE19   -585.670168 -29063.071799  -5560.189041  -3511.597113
PE21  15889.550041 -10468.707755  22672.455901   -505.685938
PE24 -27926.868735  -4615.608100  -8620.828374  -1052.602735
PE25 -16161.048176  10281.605516 -22561.699375   -596.970038
PE26  21437.427469 -20148.792499  -3257.642283  -1854.306011
PE27  27803.759475   3908.527598   9401.388710   -485.342319
PE30  22707.271258  16236.818068  -9892.143437  -1152.408887
PE31 -23214.149402 -15839.314718   9278.294025   -513.061543
PE33   6854.467564 -21498.929415 -19141.315943   -454.400937
PE34  -6645.012748  21472.315899  19258.273708    -24.332605
PE36 -21825.659094  19851.067603   2463.933642   -488.983660
PG01   8713.652874 -19006.296155 -16477.192033    225.663896
PG02  -4459.270799  19761.931332  17923.755991   -627.890014
PG03   -948.441130 -16200.624016 -21170.472802   -372.715496
PG04    811.181157 -26294.980872  -3198.649580    -50.678990
PG05 -14552.133539   9104.372934  20128.470249   -111.611670
PG06 -21381.824064   2298.199449 -15574.556926    556.868635
PG07  -6569.923502 -14367.947671  21738.944794    260.381530
PG08   7434.186565 -21086.196469  13983.788549   -103.095361
PG09  -7969.809205 -24158.622615   7474.100856   -238.142733
PG10  24136.420574  11492.159875    437.473912    -20.010929
PG11 -23586.709581  11476.553424  -4043.398278    -76.527630
PG12  -1648.049852  15993.844999 -21434.139224   -326.926970
PG13 -12894.459850  14666.776750  17736.259525    457.713984
PG14 -22824.040242 -13502.957644   2402.713795    -51.305364
PG15  -4895.138860  22192.313169  13069.427082      3.780633
PG16  18210.944656  -4394.123088  18717.118090   -524.123168
PG17 -12399.283450 -14809.543029 -17752.852011    692.671408
PG18   8830.409245  12076.586167  21951.719437    -95.176780
PG19 -14878.979135  -3051.128766 -22035.907269    262.806094
PG20 -23126.718687   2950.600666  12548.802538    457.684990
PG21  15098.977555 -19660.081583  -7740.061515    153.373467
PG22  14954.921021  -1314.327382 -21478.275019 999999.999999
PG23  18225.160372  16010.057226  10981.667350      2.200921
PG24 -10791.550012  20889.373687 -12282.215261    -25.647640
PG25   9214.370872  17952.427430 -17716.778604    410.427892
PG26  25007.309882   2674.717880   8945.638379    240.139466
PG27  12936.048167 -10761.767385  20214.813267    129.497358
PG29   3930.166905  25663.648857   5354.846144   -579.816168
PG30 -17546.919621  -5322.206708  19389.888277   -533.501294
PG31  22647.068216  -3151.397530 -14056.732065   -206.040344
PG32  14515.446394  11357.806716 -19039.209451   -360.791163
PJ02 -28430.319572  14747.904771 -22843.946120     -0.543214
PJ03 -25091.252233  33252.855325  -1479.898890     -0.071163
PJ04 -25643.022505  26930.469075  25956.154588    118.364596
PJ07 -25397.179767  33665.172132     23.427077     -0.035161
PR01  15200.870653  19440.553013  -6442.059990     21.087731
PR02  13875.293360   4935.978224 -20804.999581    -23.322648
PR03   4916.733368 -12228.476576 -21782.849164     70.696117
PR04  -6608.403782 -22167.668761 -10706.147891    171.965085
PR05 -14405.667257 -20089.026989   6242.100645    106.019361
PR06 -13763.374496  -3187.174562  21221.361062    -89.849766
PR07  -4383.609240  12980.691568  21566.296094     47.813768
PR08   6729.694072  22229.233605  10643.251659    -68.970532
PR09 -25495.416980   1012.127796  -1268.113525     98.023617
PR10 -18460.016524   7701.814377 -15792.773718    -89.511446
PR11   -220.654669  10932.462321 -23039.197248      7.288866
PR12  18893.917451   7459.963899 -15423.621973     24.248185
PR13  25508.160043     31.843097   -458.767813    -30.855809
PR14  17160.695969  -8258.948912  16968.011717     24.212449
PR15   -905.051140 -11055.659439  22982.364091     91.761181
PR16 -18681.911705  -7334.452662  15763.149171      9.840445
PR17  14710.437166 -20292.028190   4860.454677    594.904501
PR18   6978.981653 -21525.137486 -11699.896518     61.306923
PR19  -3170.070685 -12881.175605 -21780.889696   -217.890668
PR20 -14677.103108   6373.188634 -19866.191336    -85.674049
PR21 -14316.633028  20858.512918  -3158.178406   -364.678177
PR22  -7042.463065  21191.234439  12374.726141     66.195733
PR23   6786.376272   8595.569915  23036.488898    -68.768795
PR24  14995.236497  -7172.696421  19376.009358    138.960169
PR25 -15791.201246  19342.664454  -5158.596140     51.339236
EOF
